[{"OBJECT_NAME":"MATS","OBJECT_ID":"2022-147A","EPOCH":"2026-03-09T23:39:00.807264","MEAN_MOTION":15.0466868,"ECCENTRICITY":0.00129708,"INCLINATION":97.6844,"RA_OF_ASC_NODE":71.061,"ARG_OF_PERICENTER":166.9988,"MEAN_ANOMALY":193.1575,"EPHEMERIS_TYPE":0,"CLASSIFICATION_TYPE":"U","NORAD_CAT_ID":54227,"ELEMENT_SET_NO":999,"REV_AT_EPOCH":18284,"BSTAR":0.00029670702,"MEAN_MOTION_DOT":4.118e-5,"MEAN_MOTION_DDOT":0},{"OBJECT_NAME":"STARLINK-5641","OBJECT_ID":"2023-013AE","EPOCH":"2026-03-08T16:39:49.625568","MEAN_MOTION":15.0253503,"ECCENTRICITY":0.00015251,"INCLINATION":43.0045,"RA_OF_ASC_NODE":305.4012,"ARG_OF_PERICENTER":271.085,"MEAN_ANOMALY":88.9818,"EPHEMERIS_TYPE":0,"CLASSIFICATION_TYPE":"U","NORAD_CAT_ID":55359,"ELEMENT_SET_NO":999,"REV_AT_EPOCH":17156,"BSTAR":-5.31215e-6,"MEAN_MOTION_DOT":-2.75e-6,"MEAN_MOTION_DDOT":0}]
